STARLINK-36840          
1 67850U 26034A   26078.91667824 -.01942922  00000+0 -13823-1 0  9995
2 67850  53.1590 160.1226 0001111  53.6646 336.3388 15.76494185  5552
STARLINK-36348          
1 67851U 26034B   26078.91667824 -.01973460  00000+0 -16548-1 0  9994
2 67851  53.1591 160.1621 0000836  71.5238 299.0631 15.72261211  5501
STARLINK-36276          
1 67852U 26034C   26078.91667824 -.01970227  00000+0 -17395-1 0  9994
2 67852  53.1586 160.1727 0000953  68.1260 297.1012 15.71046997  5503
STARLINK-36785          
1 67853U 26034D   26078.65483619  .00229837  00000+0  11341-2 0  9991
2 67853  53.1578 161.3900 0001590 107.9206 252.1991 15.80933912  5511
STARLINK-36608          
1 67854U 26034E   26078.65408892  .00235671  00000+0  11627-2 0  9992
2 67854  53.1605 161.3850 0001486  60.6005 299.5166 15.80920953  5502
STARLINK-36838          
1 67855U 26034F   26078.52690116  .00282609  00000+0  13871-2 0  9997
2 67855  53.1577 162.0131 0002025  22.1208 337.9902 15.80902821  5496
STARLINK-36843          
1 67856U 26034G   26078.52541332 -.00212234  00000+0 -11055-2 0  9994
2 67856  53.1587 162.0024 0003343 124.5278 235.6060 15.80719083  5492
STARLINK-36828          
1 67857U 26034H   26078.65258720  .00276127  00000+0  13543-2 0  9998
2 67857  53.1595 161.3756 0001272  69.5121 290.6038 15.80936896  5512
STARLINK-36837          
1 67858U 26034J   26078.65108200  .00236230  00000+0  11613-2 0  9993
2 67858  53.1593 161.3651 0000999 335.5397  24.5578 15.80996038  5518
STARLINK-36393          
1 67859U 26034K   26078.65033020  .00229163  00000+0  11275-2 0  9992
2 67859  53.1599 161.3600 0001217 342.2058  17.8922 15.80999114  5518
STARLINK-35873          
1 67860U 26034L   26078.64958338  .00236279  00000+0  11644-2 0  9997
2 67860  53.1583 161.3557 0000508  11.3777 348.7257 15.80942243  5549
STARLINK-36325          
1 67861U 26034M   26078.64883324  .00242036  00000+0  11919-2 0  9993
2 67861  53.1597 161.3498 0000562 350.0542  10.0469 15.80942588  5515
