CCSDS_OMM_VERS = 2.0
CREATION_DATE  = 
ORIGINATOR     = 

OBJECT_NAME    = STARLINK-36840
OBJECT_ID      = 2026-034A
CENTER_NAME    = EARTH
REF_FRAME      = TEME
TIME_SYSTEM    = UTC
MEAN_ELEMENT_THEORY = SGP/SGP4

EPOCH          = 2026-03-19T22:00:00.999936
MEAN_MOTION    = 15.76494185
ECCENTRICITY   = .00011114
INCLINATION    = 53.1590
RA_OF_ASC_NODE = 160.1226
ARG_OF_PERICENTER = 53.6646
MEAN_ANOMALY   = 336.3388

EPHEMERIS_TYPE = 0
CLASSIFICATION_TYPE = U
NORAD_CAT_ID   = 67850
ELEMENT_SET_NO = 999
REV_AT_EPOCH   = 555
BSTAR          = -.13822883E-1
MEAN_MOTION_DOT = -.1942922E-1
MEAN_MOTION_DDOT = 0

CCSDS_OMM_VERS = 2.0
CREATION_DATE  = 
ORIGINATOR     = 

OBJECT_NAME    = STARLINK-36348
OBJECT_ID      = 2026-034B
CENTER_NAME    = EARTH
REF_FRAME      = TEME
TIME_SYSTEM    = UTC
MEAN_ELEMENT_THEORY = SGP/SGP4

EPOCH          = 2026-03-19T22:00:00.999936
MEAN_MOTION    = 15.72261211
ECCENTRICITY   = .00008365
INCLINATION    = 53.1591
RA_OF_ASC_NODE = 160.1621
ARG_OF_PERICENTER = 71.5238
MEAN_ANOMALY   = 299.0631

EPHEMERIS_TYPE = 0
CLASSIFICATION_TYPE = U
NORAD_CAT_ID   = 67851
ELEMENT_SET_NO = 999
REV_AT_EPOCH   = 550
BSTAR          = -.16548265E-1
MEAN_MOTION_DOT = -.197346E-1
MEAN_MOTION_DDOT = 0

CCSDS_OMM_VERS = 2.0
CREATION_DATE  = 
ORIGINATOR     = 

OBJECT_NAME    = STARLINK-36276
OBJECT_ID      = 2026-034C
CENTER_NAME    = EARTH
REF_FRAME      = TEME
TIME_SYSTEM    = UTC
MEAN_ELEMENT_THEORY = SGP/SGP4

EPOCH          = 2026-03-19T22:00:00.999936
MEAN_MOTION    = 15.71046997
ECCENTRICITY   = .00009537
INCLINATION    = 53.1586
RA_OF_ASC_NODE = 160.1727
ARG_OF_PERICENTER = 68.1260
MEAN_ANOMALY   = 297.1012

EPHEMERIS_TYPE = 0
CLASSIFICATION_TYPE = U
NORAD_CAT_ID   = 67852
ELEMENT_SET_NO = 999
REV_AT_EPOCH   = 550
BSTAR          = -.17395416E-1
MEAN_MOTION_DOT = -.1970227E-1
MEAN_MOTION_DDOT = 0

CCSDS_OMM_VERS = 2.0
CREATION_DATE  = 
ORIGINATOR     = 

OBJECT_NAME    = STARLINK-36785
OBJECT_ID      = 2026-034D
CENTER_NAME    = EARTH
REF_FRAME      = TEME
TIME_SYSTEM    = UTC
MEAN_ELEMENT_THEORY = SGP/SGP4

EPOCH          = 2026-03-19T15:42:57.846816
MEAN_MOTION    = 15.80933912
ECCENTRICITY   = .00015907
INCLINATION    = 53.1578
RA_OF_ASC_NODE = 161.3900
ARG_OF_PERICENTER = 107.9206
MEAN_ANOMALY   = 252.1991

EPHEMERIS_TYPE = 0
CLASSIFICATION_TYPE = U
NORAD_CAT_ID   = 67853
ELEMENT_SET_NO = 999
REV_AT_EPOCH   = 551
BSTAR          = .11340904E-2
MEAN_MOTION_DOT = .229837E-2
MEAN_MOTION_DDOT = 0

CCSDS_OMM_VERS = 2.0
CREATION_DATE  = 
ORIGINATOR     = 

OBJECT_NAME    = STARLINK-36608
OBJECT_ID      = 2026-034E
CENTER_NAME    = EARTH
REF_FRAME      = TEME
TIME_SYSTEM    = UTC
MEAN_ELEMENT_THEORY = SGP/SGP4

EPOCH          = 2026-03-19T15:41:53.282688
MEAN_MOTION    = 15.80920953
ECCENTRICITY   = .00014869
INCLINATION    = 53.1605
RA_OF_ASC_NODE = 161.3850
ARG_OF_PERICENTER = 60.6005
MEAN_ANOMALY   = 299.5166

EPHEMERIS_TYPE = 0
CLASSIFICATION_TYPE = U
NORAD_CAT_ID   = 67854
ELEMENT_SET_NO = 999
REV_AT_EPOCH   = 550
BSTAR          = .11626999E-2
MEAN_MOTION_DOT = .235671E-2
MEAN_MOTION_DDOT = 0

CCSDS_OMM_VERS = 2.0
CREATION_DATE  = 
ORIGINATOR     = 

OBJECT_NAME    = STARLINK-36838
OBJECT_ID      = 2026-034F
CENTER_NAME    = EARTH
REF_FRAME      = TEME
TIME_SYSTEM    = UTC
MEAN_ELEMENT_THEORY = SGP/SGP4

EPOCH          = 2026-03-19T12:38:44.260224
MEAN_MOTION    = 15.80902821
ECCENTRICITY   = .0002025
INCLINATION    = 53.1577
RA_OF_ASC_NODE = 162.0131
ARG_OF_PERICENTER = 22.1208
MEAN_ANOMALY   = 337.9902

EPHEMERIS_TYPE = 0
CLASSIFICATION_TYPE = U
NORAD_CAT_ID   = 67855
ELEMENT_SET_NO = 999
REV_AT_EPOCH   = 549
BSTAR          = .13871041E-2
MEAN_MOTION_DOT = .282609E-2
MEAN_MOTION_DDOT = 0

CCSDS_OMM_VERS = 2.0
CREATION_DATE  = 
ORIGINATOR     = 

OBJECT_NAME    = STARLINK-36843
OBJECT_ID      = 2026-034G
CENTER_NAME    = EARTH
REF_FRAME      = TEME
TIME_SYSTEM    = UTC
MEAN_ELEMENT_THEORY = SGP/SGP4

EPOCH          = 2026-03-19T12:36:35.710848
MEAN_MOTION    = 15.80719083
ECCENTRICITY   = .00033435
INCLINATION    = 53.1587
RA_OF_ASC_NODE = 162.0024
ARG_OF_PERICENTER = 124.5278
MEAN_ANOMALY   = 235.6060

EPHEMERIS_TYPE = 0
CLASSIFICATION_TYPE = U
NORAD_CAT_ID   = 67856
ELEMENT_SET_NO = 999
REV_AT_EPOCH   = 549
BSTAR          = -.11055222E-2
MEAN_MOTION_DOT = -.212234E-2
MEAN_MOTION_DDOT = 0

CCSDS_OMM_VERS = 2.0
CREATION_DATE  = 
ORIGINATOR     = 

OBJECT_NAME    = STARLINK-36828
OBJECT_ID      = 2026-034H
CENTER_NAME    = EARTH
REF_FRAME      = TEME
TIME_SYSTEM    = UTC
MEAN_ELEMENT_THEORY = SGP/SGP4

EPOCH          = 2026-03-19T15:39:43.534080
MEAN_MOTION    = 15.80936896
ECCENTRICITY   = .0001272
INCLINATION    = 53.1595
RA_OF_ASC_NODE = 161.3756
ARG_OF_PERICENTER = 69.5121
MEAN_ANOMALY   = 290.6038

EPHEMERIS_TYPE = 0
CLASSIFICATION_TYPE = U
NORAD_CAT_ID   = 67857
ELEMENT_SET_NO = 999
REV_AT_EPOCH   = 551
BSTAR          = .13542832E-2
MEAN_MOTION_DOT = .276127E-2
MEAN_MOTION_DDOT = 0

CCSDS_OMM_VERS = 2.0
CREATION_DATE  = 
ORIGINATOR     = 

OBJECT_NAME    = STARLINK-36837
OBJECT_ID      = 2026-034J
CENTER_NAME    = EARTH
REF_FRAME      = TEME
TIME_SYSTEM    = UTC
MEAN_ELEMENT_THEORY = SGP/SGP4

EPOCH          = 2026-03-19T15:37:33.484800
MEAN_MOTION    = 15.80996038
ECCENTRICITY   = .00009999
INCLINATION    = 53.1593
RA_OF_ASC_NODE = 161.3651
ARG_OF_PERICENTER = 335.5397
MEAN_ANOMALY   = 24.5578

EPHEMERIS_TYPE = 0
CLASSIFICATION_TYPE = U
NORAD_CAT_ID   = 67858
ELEMENT_SET_NO = 999
REV_AT_EPOCH   = 551
BSTAR          = .11613496E-2
MEAN_MOTION_DOT = .23623E-2
MEAN_MOTION_DDOT = 0

CCSDS_OMM_VERS = 2.0
CREATION_DATE  = 
ORIGINATOR     = 

OBJECT_NAME    = STARLINK-36393
OBJECT_ID      = 2026-034K
CENTER_NAME    = EARTH
REF_FRAME      = TEME
TIME_SYSTEM    = UTC
MEAN_ELEMENT_THEORY = SGP/SGP4

EPOCH          = 2026-03-19T15:36:28.529280
MEAN_MOTION    = 15.80999114
ECCENTRICITY   = .00012171
INCLINATION    = 53.1599
RA_OF_ASC_NODE = 161.3600
ARG_OF_PERICENTER = 342.2058
MEAN_ANOMALY   = 17.8922

EPHEMERIS_TYPE = 0
CLASSIFICATION_TYPE = U
NORAD_CAT_ID   = 67859
ELEMENT_SET_NO = 999
REV_AT_EPOCH   = 551
BSTAR          = .11274829E-2
MEAN_MOTION_DOT = .229163E-2
MEAN_MOTION_DDOT = 0

CCSDS_OMM_VERS = 2.0
CREATION_DATE  = 
ORIGINATOR     = 

OBJECT_NAME    = STARLINK-35873
OBJECT_ID      = 2026-034L
CENTER_NAME    = EARTH
REF_FRAME      = TEME
TIME_SYSTEM    = UTC
MEAN_ELEMENT_THEORY = SGP/SGP4

EPOCH          = 2026-03-19T15:35:24.004032
MEAN_MOTION    = 15.80942243
ECCENTRICITY   = .00005087
INCLINATION    = 53.1583
RA_OF_ASC_NODE = 161.3557
ARG_OF_PERICENTER = 11.3777
MEAN_ANOMALY   = 348.7257

EPHEMERIS_TYPE = 0
CLASSIFICATION_TYPE = U
NORAD_CAT_ID   = 67860
ELEMENT_SET_NO = 999
REV_AT_EPOCH   = 554
BSTAR          = .11644323E-2
MEAN_MOTION_DOT = .236279E-2
MEAN_MOTION_DDOT = 0

CCSDS_OMM_VERS = 2.0
CREATION_DATE  = 
ORIGINATOR     = 

OBJECT_NAME    = STARLINK-36325
OBJECT_ID      = 2026-034M
CENTER_NAME    = EARTH
REF_FRAME      = TEME
TIME_SYSTEM    = UTC
MEAN_ELEMENT_THEORY = SGP/SGP4

EPOCH          = 2026-03-19T15:34:19.191936
MEAN_MOTION    = 15.80942588
ECCENTRICITY   = .00005627
INCLINATION    = 53.1597
RA_OF_ASC_NODE = 161.3498
ARG_OF_PERICENTER = 350.0542
MEAN_ANOMALY   = 10.0469

EPHEMERIS_TYPE = 0
CLASSIFICATION_TYPE = U
NORAD_CAT_ID   = 67861
ELEMENT_SET_NO = 999
REV_AT_EPOCH   = 551
BSTAR          = .11919054E-2
MEAN_MOTION_DOT = .242036E-2
MEAN_MOTION_DDOT = 0

